{"type":"Feature","properties":{"name":"Tỉnh Cao Bằng"},"geometry":{"type":"Polygon","coordinates":[[[106.1924,22.3844],[106.2014,22.3891],[106.2116,22.3976],[106.2151,22.4153],[106.2186,22.4228],[106.2252,22.428],[106.2414,22.4312],[106.2525,22.4308],[106.2713,22.4238],[106.2859,22.413],[106.2935,22.3966],[106.3224,22.3803],[106.3431,22.3732],[106.3517,22.3583],[106.3628,22.347],[106.376,22.3405],[106.3927,22.3367],[106.4043,22.3358],[106.4322,22.3386],[106.4797,22.3339],[106.4924,22.3367],[106.4979,22.3424],[106.5005,22.3573],[106.5075,22.3643],[106.5202,22.3732],[106.5531,22.384],[106.5642,22.3901],[106.5809,22.3952],[106.5769,22.4041],[106.5683,22.4149],[106.5667,22.428],[106.5698,22.4369],[106.5844,22.4513],[106.5981,22.4682],[106.6062,22.5056],[106.6128,22.5224],[106.6214,22.5673],[106.632,22.5724],[106.6735,22.5626],[106.6917,22.564],[106.714,22.5743],[106.7276,22.5883],[106.7398,22.613],[106.7479,22.6397],[106.7565,22.6499],[106.7641,22.6635],[106.7848,22.6901],[106.7858,22.7088],[106.7838,22.7251],[106.7934,22.7382],[106.8167,22.7582],[106.8298,22.7825],[106.8364,22.7895],[106.8384,22.803],[106.8329,22.8058],[106.8222,22.8081],[106.8116,22.8072],[106.7904,22.8142],[106.7803,22.8217],[106.758,22.8305],[106.717,22.8576],[106.7109,22.873],[106.7074,22.8874],[106.6993,22.886],[106.6831,22.8706],[106.6689,22.8697],[106.6573,22.8734],[106.6421,22.8753],[106.6275,22.9079],[106.6188,22.9158],[106.6092,22.92],[106.6006,22.9196],[106.5895,22.9163],[106.5819,22.9172],[106.5571,22.9317],[106.5455,22.9321],[106.5283,22.9275],[106.5141,22.9172],[106.4989,22.9033],[106.459,22.8837],[106.4392,22.8781],[106.3881,22.8734],[106.3714,22.8683],[106.3649,22.8613],[106.3558,22.8576],[106.3522,22.8576],[106.3377,22.8635],[106.3198,22.8674],[106.3062,22.8677],[106.2959,22.8743],[106.282,22.8862],[106.2748,22.9068],[106.2697,22.9163],[106.2454,22.9545],[106.2405,22.9593],[106.2221,22.9679],[106.2013,22.9745],[106.1751,22.9852],[106.1537,22.9879],[106.1469,22.9849],[106.1324,22.9825],[106.1145,22.9825],[106.0964,22.9927],[106.0631,22.9924],[106.0511,22.9906],[106.03,22.9828],[106.0135,22.9819],[106.0145,22.9748],[106.02,22.9661],[106.0177,22.9578],[105.9957,22.942],[105.9802,22.9372],[105.9649,22.942],[105.9232,22.9396],[105.907,22.9324],[105.8957,22.9247],[105.8833,22.9244],[105.8626,22.9441],[105.8435,22.9715],[105.8196,23.0004],[105.7992,23.0156],[105.7758,23.0296],[105.7561,23.0394],[105.7418,23.0523],[105.7263,23.0692],[105.712,23.074],[105.6968,23.0764],[105.6747,23.0756],[105.6535,23.0779],[105.611,23.0709],[105.5983,23.0709],[105.5837,23.0737],[105.5786,23.0798],[105.5745,23.09],[105.5725,23.1044],[105.566,23.119],[105.556,23.1163],[105.5307,23.1133],[105.5184,23.1058],[105.5083,23.0891],[105.5027,23.0663],[105.4981,23.0616],[105.4966,23.0369],[105.4941,23.0286],[105.4845,23.0179],[105.4607,23.0081],[105.4349,23.0057],[105.4142,22.9969],[105.3792,22.989],[105.3737,22.9825],[105.3676,22.9526],[105.3646,22.9447],[105.3383,22.9359],[105.312,22.9219],[105.3049,22.9144],[105.3049,22.9009],[105.3018,22.8837],[105.2942,22.8748],[105.2836,22.8762],[105.274,22.8799],[105.2684,22.872],[105.2765,22.8585],[105.313,22.8464],[105.3221,22.8394],[105.3332,22.8333],[105.3413,22.824],[105.3448,22.8175],[105.4,22.8049],[105.4374,22.7783],[105.4496,22.7676],[105.4713,22.7368],[105.4789,22.7237],[105.482,22.7144],[105.4769,22.6882],[105.4784,22.6752],[105.4956,22.6481],[105.5015,22.6362],[105.5133,22.6341],[105.529,22.6341],[105.531,22.6327],[105.5432,22.6322],[105.5563,22.6364],[105.569,22.6476],[105.5978,22.6644],[105.6084,22.6738],[105.6145,22.6836],[105.6317,22.6906],[105.6444,22.6976],[105.6697,22.7167],[105.6773,22.7176],[105.6914,22.7162],[105.7147,22.7181],[105.7279,22.7228],[105.7349,22.7284],[105.7495,22.7308],[105.7551,22.7245],[105.7559,22.7211],[105.7547,22.7069],[105.763,22.6983],[105.7742,22.6918],[105.7769,22.6739],[105.7736,22.6639],[105.7675,22.6565],[105.741,22.6336],[105.7375,22.6266],[105.7385,22.6173],[105.7577,22.5822],[105.7992,22.528],[105.8083,22.5191],[105.8275,22.506],[105.8402,22.5004],[105.8913,22.4906],[105.9166,22.4743],[105.9297,22.4775],[105.9459,22.5023],[105.9601,22.5074],[105.9793,22.5103],[105.9879,22.5145],[106.0026,22.5247],[106.0319,22.536],[106.0426,22.5434],[106.0618,22.5537],[106.0724,22.5542],[106.0765,22.5439],[106.0815,22.536],[106.1083,22.5103],[106.1139,22.5018],[106.1215,22.463],[106.1215,22.4354],[106.1149,22.4256],[106.1114,22.4242],[106.1083,22.4153],[106.1129,22.4046],[106.124,22.3919],[106.1463,22.3863],[106.1731,22.3831],[106.1908,22.3835],[106.1924,22.3844]]]}}